{"type": "FeatureCollection", "features": [ {"type": "Feature", "properties": {"norad_id": 34433, "name": "COSMOS 2251 DEB", "group": "cosmos-2251-debris", "lat": 59.87047446934067, "lon": -75.33179608753818, "alt_km": 942.3017211477336, "timestamp": "2025-12-24T09:46:31.399248+00:00", "meta": {"OBJECT_NAME": "COSMOS 2251 DEB", "OBJECT_ID": "1993-036SA", "EPOCH": "2025-12-23T11:07:34.769568", "MEAN_MOTION": 14.12897188, "ECCENTRICITY": 0.01528438, "INCLINATION": 74.0105, "RA_OF_ASC_NODE": 135.9459, "ARG_OF_PERICENTER": 271.7573, "MEAN_ANOMALY": 86.6067, "EPHEMERIS_TYPE": 0, "CLASSIFICATION_TYPE": "U", "NORAD_CAT_ID": 34433, "ELEMENT_SET_NO": 999, "REV_AT_EPOCH": 86101, "BSTAR": 0.0011648246, "MEAN_MOTION_DOT": 2.397e-05, "MEAN_MOTION_DDOT": 0}, "tle": {"line1": "1 34433U 93036SA  25357.46359687  .00002397  00000+0  11648-2 0  9990", "line2": "2 34433  74.0105 135.9459 0152843 271.7573  86.6067 14.12897188861015"}}, "geometry": {"type": "Point", "coordinates": [-75.33179608753818, 59.87047446934067]}}, {"type": "Feature", "properties": {"norad_id": 34434, "name": "COSMOS 2251 DEB", "group": "cosmos-2251-debris", "lat": 56.217636537784045, "lon": 144.99497144067925, "alt_km": 723.9845417373272, "timestamp": "2025-12-24T09:46:31.399258+00:00", "meta": {"OBJECT_NAME": "COSMOS 2251 DEB", "OBJECT_ID": "1993-036SB", "EPOCH": "2025-12-24T04:39:34.657632", "MEAN_MOTION": 13.89873173, "ECCENTRICITY": 0.0273606, "INCLINATION": 74.0625, "RA_OF_ASC_NODE": 350.6424, "ARG_OF_PERICENTER": 125.1676, "MEAN_ANOMALY": 9.0835, "EPHEMERIS_TYPE": 0, "CLASSIFICATION_TYPE": "U", "NORAD_CAT_ID": 34434, "ELEMENT_SET_NO": 999, "REV_AT_EPOCH": 84125, "BSTAR": 0.0017654, "MEAN_MOTION_DOT": 2.915e-05, "MEAN_MOTION_DDOT": 0}, "tle": {"line1": "1 34434U 93036SB  25358.19415113  .00002915  00000+0  17654-2 0  9998", "line2": "2 34434  74.0625 350.6424 0273606 125.1676   9.0835 13.89873173841255"}}, "geometry": {"type": "Point", "coordinates": [144.99497144067925, 56.217636537784045]}}, {"type": "Feature", "properties": {"norad_id": 34446, "name": "COSMOS 2251 DEB", "group": "cosmos-2251-debris", "lat": -68.23632185630892, "lon": -10.384682232659651, "alt_km": 749.3299115966838, "timestamp": "2025-12-24T09:46:31.399269+00:00", "meta": {"OBJECT_NAME": "COSMOS 2251 DEB", "OBJECT_ID": "1993-036SP", "EPOCH": "2025-12-24T03:29:51.066816", "MEAN_MOTION": 14.4936466, "ECCENTRICITY": 0.0050582, "INCLINATION": 74.0415, "RA_OF_ASC_NODE": 35.8917, "ARG_OF_PERICENTER": 171.1781, "MEAN_ANOMALY": 189.0281, "EPHEMERIS_TYPE": 0, "CLASSIFICATION_TYPE": "U", "NORAD_CAT_ID": 34446, "ELEMENT_SET_NO": 999, "REV_AT_EPOCH": 88859, "BSTAR": 0.00011249, "MEAN_MOTION_DOT": 4.08e-06, "MEAN_MOTION_DDOT": 0}, "tle": {"line1": "1 34446U 93036SP  25358.14572994  .00000408  00000+0  11249-3 0  9997", "line2": "2 34446  74.0415  35.8917 0050582 171.1781 189.0281 14.49364660888593"}}, "geometry": {"type": "Point", "coordinates": [-10.384682232659651, -68.23632185630892]}}, {"type": "Feature", "properties": {"norad_id": 34449, "name": "COSMOS 2251 DEB", "group": "cosmos-2251-debris", "lat": -14.662199608954502, "lon": -128.6873665428819, "alt_km": 591.228260438972, "timestamp": "2025-12-24T09:46:31.399279+00:00", "meta": {"OBJECT_NAME": "COSMOS 2251 DEB", "OBJECT_ID": "1993-036SS", "EPOCH": "2025-12-24T04:21:00.471744", "MEAN_MOTION": 14.95463737, "ECCENTRICITY": 0.002271, "INCLINATION": 74.0325, "RA_OF_ASC_NODE": 47.4724, "ARG_OF_PERICENTER": 83.4093, "MEAN_ANOMALY": 335.0183, "EPHEMERIS_TYPE": 0, "CLASSIFICATION_TYPE": "U", "NORAD_CAT_ID": 34449, "ELEMENT_SET_NO": 999, "REV_AT_EPOCH": 88864, "BSTAR": 0.0023005, "MEAN_MOTION_DOT": 0.00025646, "MEAN_MOTION_DDOT": 0}, "tle": {"line1": "1 34449U 93036SS  25358.18125546  .00025646  00000+0  23005-2 0  9994", "line2": "2 34449  74.0325  47.4724 0022710  83.4093 335.0183 14.95463737888640"}}, "geometry": {"type": "Point", "coordinates": [-128.6873665428819, -14.662199608954502]}}, {"type": "Feature", "properties": {"norad_id": 34451, "name": "COSMOS 2251 DEB", "group": "cosmos-2251-debris", "lat": -15.30454645319531, "lon": -111.18737139282302, "alt_km": 590.9504034424199, "timestamp": "2025-12-24T09:46:31.399306+00:00", "meta": {"OBJECT_NAME": "COSMOS 2251 DEB", "OBJECT_ID": "1993-036SU", "EPOCH": "2025-12-23T07:13:44.023872", "MEAN_MOTION": 14.96141675, "ECCENTRICITY": 0.00239107, "INCLINATION": 74.0459, "RA_OF_ASC_NODE": 66.5549, "ARG_OF_PERICENTER": 79.9733, "MEAN_ANOMALY": 280.4149, "EPHEMERIS_TYPE": 0, "CLASSIFICATION_TYPE": "U", "NORAD_CAT_ID": 34451, "ELEMENT_SET_NO": 999, "REV_AT_EPOCH": 88793, "BSTAR": 0.0024715737, "MEAN_MOTION_DOT": 0.00028064, "MEAN_MOTION_DDOT": 0}, "tle": {"line1": "1 34451U 93036SU  25357.30120398  .00028064  00000+0  24716-2 0  9997", "line2": "2 34451  74.0459  66.5549 0023910  79.9733 280.4149 14.96141675887933"}}, "geometry": {"type": "Point", "coordinates": [-111.18737139282302, -15.30454645319531]}}, {"type": "Feature", "properties": {"norad_id": 34452, "name": "COSMOS 2251 DEB", "group": "cosmos-2251-debris", "lat": -51.30244186635334, "lon": -0.3911535742439351, "alt_km": 492.2457480439025, "timestamp": "2025-12-24T09:46:31.399319+00:00", "meta": {"OBJECT_NAME": "COSMOS 2251 DEB", "OBJECT_ID": "1993-036SV", "EPOCH": "2025-12-23T16:55:54.738624", "MEAN_MOTION": 15.11969996, "ECCENTRICITY": 0.0064426, "INCLINATION": 74.0321, "RA_OF_ASC_NODE": 160.1187, "ARG_OF_PERICENTER": 233.9926, "MEAN_ANOMALY": 141.7643, "EPHEMERIS_TYPE": 0, "CLASSIFICATION_TYPE": "U", "NORAD_CAT_ID": 34452, "ELEMENT_SET_NO": 999, "REV_AT_EPOCH": 90828, "BSTAR": 0.00092065573, "MEAN_MOTION_DOT": 0.00016606, "MEAN_MOTION_DDOT": 0}, "tle": {"line1": "1 34452U 93036SV  25357.70549466  .00016606  00000+0  92066-3 0  9996", "line2": "2 34452  74.0321 160.1187 0064426 233.9926 141.7643 15.11969996908286"}}, "geometry": {"type": "Point", "coordinates": [-0.3911535742439351, -51.30244186635334]}}, {"type": "Feature", "properties": {"norad_id": 34454, "name": "COSMOS 2251 DEB", "group": "cosmos-2251-debris", "lat": 73.21022439811392, "lon": -32.53157334164617, "alt_km": 770.8819833873049, "timestamp": "2025-12-24T09:46:31.399331+00:00", "meta": {"OBJECT_NAME": "COSMOS 2251 DEB", "OBJECT_ID": "1993-036SX", "EPOCH": "2025-12-24T02:42:31.341600", "MEAN_MOTION": 14.38825436, "ECCENTRICITY": 0.0035948, "INCLINATION": 74.0585, "RA_OF_ASC_NODE": 256.6923, "ARG_OF_PERICENTER": 316.9729, "MEAN_ANOMALY": 42.8615, "EPHEMERIS_TYPE": 0, "CLASSIFICATION_TYPE": "U", "NORAD_CAT_ID": 34454, "ELEMENT_SET_NO": 999, "REV_AT_EPOCH": 88231, "BSTAR": 0.00021282, "MEAN_MOTION_DOT": 6.33e-06, "MEAN_MOTION_DDOT": 0}, "tle": {"line1": "1 34454U 93036SX  25358.11286275  .00000633  00000+0  21282-3 0  9995", "line2": "2 34454  74.0585 256.6923 0035948 316.9729  42.8615 14.38825436882312"}}, "geometry": {"type": "Point", "coordinates": [-32.53157334164617, 73.21022439811392]}}, {"type": "Feature", "properties": {"norad_id": 34459, "name": "COSMOS 2251 DEB", "group": "cosmos-2251-debris", "lat": -73.60383076344529, "lon": 157.9312402386938, "alt_km": 774.0507684396161, "timestamp": "2025-12-24T09:46:31.399341+00:00", "meta": {"OBJECT_NAME": "COSMOS 2251 DEB", "OBJECT_ID": "1993-036TC", "EPOCH": "2025-12-23T08:27:26.889984", "MEAN_MOTION": 14.00515123, "ECCENTRICITY": 0.01921173, "INCLINATION": 74.0784, "RA_OF_ASC_NODE": 235.7062, "ARG_OF_PERICENTER": 303.0931, "MEAN_ANOMALY": 55.1885, "EPHEMERIS_TYPE": 0, "CLASSIFICATION_TYPE": "U", "NORAD_CAT_ID": 34459, "ELEMENT_SET_NO": 999, "REV_AT_EPOCH": 85860, "BSTAR": 0.00036480371, "MEAN_MOTION_DOT": 6.1e-06, "MEAN_MOTION_DDOT": 0}, "tle": {"line1": "1 34459U 93036TC  25357.35239456  .00000610  00000+0  36480-3 0  9995", "line2": "2 34459  74.0784 235.7062 0192117 303.0931  55.1885 14.00515123858603"}}, "geometry": {"type": "Point", "coordinates": [157.9312402386938, -73.60383076344529]}}, {"type": "Feature", "properties": {"norad_id": 34464, "name": "COSMOS 2251 DEB", "group": "cosmos-2251-debris", "lat": -0.8812796811262049, "lon": 53.19527876127659, "alt_km": 487.8747221506146, "timestamp": "2025-12-24T09:46:31.399352+00:00", "meta": {"OBJECT_NAME": "COSMOS 2251 DEB", "OBJECT_ID": "1993-036TH", "EPOCH": "2025-12-24T03:29:47.832000", "MEAN_MOTION": 15.28634511, "ECCENTRICITY": 0.001413, "INCLINATION": 73.9886, "RA_OF_ASC_NODE": 54.0054, "ARG_OF_PERICENTER": 236.8349, "MEAN_ANOMALY": 123.1498, "EPHEMERIS_TYPE": 0, "CLASSIFICATION_TYPE": "U", "NORAD_CAT_ID": 34464, "ELEMENT_SET_NO": 999, "REV_AT_EPOCH": 90014, "BSTAR": 0.0026969, "MEAN_MOTION_DOT": 0.00076082, "MEAN_MOTION_DDOT": 0}, "tle": {"line1": "1 34464U 93036TH  25358.14569250  .00076082  00000+0  26969-2 0  9993", "line2": "2 34464  73.9886  54.0054 0014130 236.8349 123.1498 15.28634511900144"}}, "geometry": {"type": "Point", "coordinates": [53.19527876127659, -0.8812796811262049]}}, {"type": "Feature", "properties": {"norad_id": 34468, "name": "COSMOS 2251 DEB", "group": "cosmos-2251-debris", "lat": 72.90447480724998, "lon": -153.4267887573817, "alt_km": 768.4422518092824, "timestamp": "2025-12-24T09:46:31.399363+00:00", "meta": {"OBJECT_NAME": "COSMOS 2251 DEB", "OBJECT_ID": "1993-036TM", "EPOCH": "2025-12-23T23:22:33.866976", "MEAN_MOTION": 14.47653648, "ECCENTRICITY": 0.0076271, "INCLINATION": 74.013, "RA_OF_ASC_NODE": 96.1572, "ARG_OF_PERICENTER": 238.8195, "MEAN_ANOMALY": 120.5471, "EPHEMERIS_TYPE": 0, "CLASSIFICATION_TYPE": "U", "NORAD_CAT_ID": 34468, "ELEMENT_SET_NO": 999, "REV_AT_EPOCH": 88624, "BSTAR": 0.00034105, "MEAN_MOTION_DOT": 1.275e-05, "MEAN_MOTION_DDOT": 0}, "tle": {"line1": "1 34468U 93036TM  25357.97400309  .00001275  00000+0  34105-3 0  9990", "line2": "2 34468  74.0130  96.1572 0076271 238.8195 120.5471 14.47653648886247"}}, "geometry": {"type": "Point", "coordinates": [-153.4267887573817, 72.90447480724998]}}]}